{"type":"FeatureCollection","features":[{"type":"Feature","properties":{"name":"boundary"},"geometry":
{"type":"MultiPolygon","coordinates":[[[[78.800372,9.157524],[78.806896,9.160056],[78.812806,9.161597],[78.81459,9.161047],[78.813698,9.164349],[78.814813,9.165615],[78.815482,9.167762],[78.817322,9.168918],[78.817879,9.17156],[78.819608,9.171725],[78.8205,9.170294],[78.824347,9.175083],[78.824455,9.177133],[78.82536,9.176776],[78.827894,9.179599],[78.829016,9.178598],[78.829849,9.180028],[78.827823,9.183694],[78.83112,9.183727],[78.832364,9.186956],[78.835083,9.187275],[78.833283,9.180643],[78.838645,9.17207],[78.837895,9.1642],[78.835963,9.163449],[78.834851,9.164605],[78.833388,9.163507],[78.832919,9.160848],[78.830988,9.156919],[78.824607,9.156456],[78.81811,9.157901],[78.811378,9.157843],[78.808217,9.156687],[78.806637,9.157439],[78.802012,9.154896],[78.800198,9.155185],[78.800315,9.155994],[78.800372,9.157524]]]]}
}]}
